start=new Date('2023-02-23T00:00:00.000Z').valueOf();
sats=[{"ECCENTRICITY":"0.00014140","BSTAR":"-0.00014469000000","RA_OF_ASC_NODE":"240.3208","FILE":"3825529","APOAPSIS":"540.773","COUNTRY_CODE":"US","OBJECT_TYPE":"PAYLOAD","TIME_SYSTEM":"UTC","EPOCH":"2023-02-22T21:18:00.326592","TLE_LINE2":"2 53850  53.2164 240.3208 0001414  75.9955 284.1194 15.08823845 25283","MEAN_ANOMALY":"284.1194","PERIAPSIS":"538.817","SITE":"AFETR","MEAN_MOTION_DOT":"-0.00002589","RCS_SIZE":"LARGE","ELEMENT_SET_NO":"999","MEAN_ELEMENT_THEORY":"SGP4","OBJECT_ID":"2022-114AJ","MEAN_MOTION_DDOT":"0.0000000000000","DECAY_DATE":null,"ARG_OF_PERICENTER":"75.9955","TLE_LINE1":"1 53850U 22114AJ  23053.88750378 -.00002589  00000-0 -14469-3 0  9993","INCLINATION":"53.2164","CENTER_NAME":"EARTH","OBJECT_NAME":"STARLINK-4767","PERIOD":"95.439","MEAN_MOTION":"15.08823845","CLASSIFICATION_TYPE":"U","GP_ID":"226476341","SEMIMAJOR_AXIS":"6917.930","REF_FRAME":"TEME","LAUNCH_DATE":"2022-09-19","REV_AT_EPOCH":"2528","NORAD_CAT_ID":"53850","EPHEMERIS_TYPE":"0"},{"INCLINATION":"53.2180","ARG_OF_PERICENTER":"92.0689","TLE_LINE1":"1 53851U 22114AK  23053.90223827 -.00000128  00000-0  10036-4 0  9994","DECAY_DATE":null,"MEAN_MOTION_DDOT":"0.0000000000000","OBJECT_ID":"2022-114AK","MEAN_ELEMENT_THEORY":"SGP4","EPHEMERIS_TYPE":"0","REV_AT_EPOCH":"2528","NORAD_CAT_ID":"53851","LAUNCH_DATE":"2022-09-19","REF_FRAME":"TEME","SEMIMAJOR_AXIS":"6917.884","CLASSIFICATION_TYPE":"U","GP_ID":"226476591","MEAN_MOTION":"15.08838803","PERIOD":"95.438","OBJECT_NAME":"STARLINK-4755","CENTER_NAME":"EARTH","OBJECT_TYPE":"PAYLOAD","COUNTRY_CODE":"US","APOAPSIS":"540.651","FILE":"3825529","RA_OF_ASC_NODE":"240.4111","BSTAR":"0.00001003600000","ECCENTRICITY":"0.00013040","ELEMENT_SET_NO":"999","RCS_SIZE":"LARGE","SITE":"AFETR","MEAN_MOTION_DOT":"-0.00000128","PERIAPSIS":"538.847","MEAN_ANOMALY":"268.0453","TLE_LINE2":"2 53851  53.2180 240.4111 0001304  92.0689 268.0453 15.08838803 25287","EPOCH":"2023-02-22T21:39:13.386528","TIME_SYSTEM":"UTC"},{"MEAN_ELEMENT_THEORY":"SGP4","OBJECT_ID":"2022-114AL","MEAN_MOTION_DDOT":"0.0000000000000","DECAY_DATE":null,"ARG_OF_PERICENTER":"77.6851","TLE_LINE1":"1 53852U 22114AL  23053.86874786  .00013819  00000-0  88412-3 0  9998","INCLINATION":"53.2169","CENTER_NAME":"EARTH","OBJECT_NAME":"STARLINK-4797","PERIOD":"95.436","MEAN_MOTION":"15.08860722","GP_ID":"226476842","CLASSIFICATION_TYPE":"U","SEMIMAJOR_AXIS":"6917.817","REF_FRAME":"TEME","LAUNCH_DATE":"2022-09-19","NORAD_CAT_ID":"53852","REV_AT_EPOCH":"2534","EPHEMERIS_TYPE":"0","ECCENTRICITY":"0.00008310","BSTAR":"0.00088412000000","RA_OF_ASC_NODE":"235.9180","FILE":"3825529","APOAPSIS":"540.257","OBJECT_TYPE":"PAYLOAD","COUNTRY_CODE":"US","TIME_SYSTEM":"UTC","EPOCH":"2023-02-22T20:50:59.815104","TLE_LINE2":"2 53852  53.2169 235.9180 0000831  77.6851 282.4234 15.08860722 25343","MEAN_ANOMALY":"282.4234","PERIAPSIS":"539.107","SITE":"AFETR","MEAN_MOTION_DOT":"0.00013819","RCS_SIZE":"LARGE","ELEMENT_SET_NO":"999"},{"OBJECT_ID":"2022-114AM","MEAN_ELEMENT_THEORY":"SGP4","MEAN_MOTION_DDOT":"0.0000000000000","DECAY_DATE":null,"TLE_LINE1":"1 53853U 22114AM  23053.56366871  .00000961  00000-0  78436-4 0  9997","ARG_OF_PERICENTER":"80.5343","INCLINATION":"53.2153","PERIOD":"95.438","OBJECT_NAME":"STARLINK-4794","CENTER_NAME":"EARTH","MEAN_MOTION":"15.08837347","SEMIMAJOR_AXIS":"6917.888","CLASSIFICATION_TYPE":"U","GP_ID":"226425313","LAUNCH_DATE":"2022-09-19","REF_FRAME":"TEME","NORAD_CAT_ID":"53853","REV_AT_EPOCH":"2523","EPHEMERIS_TYPE":"0","ECCENTRICITY":"0.00010430","RA_OF_ASC_NODE":"241.8533","BSTAR":"0.00007843600000","FILE":"3824148","OBJECT_TYPE":"PAYLOAD","COUNTRY_CODE":"US","APOAPSIS":"540.475","TIME_SYSTEM":"UTC","EPOCH":"2023-02-22T13:31:40.976544","TLE_LINE2":"2 53853  53.2153 241.8533 0001043  80.5343 279.5767 15.08837347 25233","MEAN_ANOMALY":"279.5767","PERIAPSIS":"539.032","SITE":"AFETR","RCS_SIZE":"LARGE","MEAN_MOTION_DOT":"0.00000961","ELEMENT_SET_NO":"999"},{"TIME_SYSTEM":"UTC","EPOCH":"2023-02-22T17:52:45.731136","TLE_LINE2":"2 53854  53.2169 231.5776 0001302  85.5343 274.5798 15.08839468 25391","MEAN_ANOMALY":"274.5798","PERIAPSIS":"538.846","SITE":"AFETR","RCS_SIZE":"LARGE","MEAN_MOTION_DOT":"0.00000519","ELEMENT_SET_NO":"999","ECCENTRICITY":"0.00013020","BSTAR":"0.00005069000000","RA_OF_ASC_NODE":"231.5776","FILE":"3825529","APOAPSIS":"540.648","COUNTRY_CODE":"US","OBJECT_TYPE":"PAYLOAD","CENTER_NAME":"EARTH","PERIOD":"95.438","OBJECT_NAME":"STARLINK-4800","MEAN_MOTION":"15.08839468","GP_ID":"226475841","CLASSIFICATION_TYPE":"U","SEMIMAJOR_AXIS":"6917.882","LAUNCH_DATE":"2022-09-19","REF_FRAME":"TEME","REV_AT_EPOCH":"2539","NORAD_CAT_ID":"53854","EPHEMERIS_TYPE":"0","MEAN_ELEMENT_THEORY":"SGP4","OBJECT_ID":"2022-114AN","MEAN_MOTION_DDOT":"0.0000000000000","DECAY_DATE":null,"TLE_LINE1":"1 53854U 22114AN  23053.74497374  .00000519  00000-0  50690-4 0  9992","ARG_OF_PERICENTER":"85.5343","INCLINATION":"53.2169"},{"CENTER_NAME":"EARTH","PERIOD":"95.438","OBJECT_NAME":"STARLINK-4703","GP_ID":"226423832","CLASSIFICATION_TYPE":"U","SEMIMAJOR_AXIS":"6917.887","MEAN_MOTION":"15.08837899","LAUNCH_DATE":"2022-09-19","REF_FRAME":"TEME","EPHEMERIS_TYPE":"0","NORAD_CAT_ID":"53855","REV_AT_EPOCH":"2522","MEAN_MOTION_DDOT":"0.0000000000000","MEAN_ELEMENT_THEORY":"SGP4","OBJECT_ID":"2022-114AP","DECAY_DATE":null,"TLE_LINE1":"1 53855U 22114AP  23053.49374523  .00000164  00000-0  28369-4 0  9999","ARG_OF_PERICENTER":"98.7804","INCLINATION":"53.2168","TIME_SYSTEM":"UTC","TLE_LINE2":"2 53855  53.2168 242.1285 0001352  98.7804 261.3341 15.08837899 25223","EPOCH":"2023-02-22T11:50:59.587872","PERIAPSIS":"538.817","MEAN_ANOMALY":"261.3341","ELEMENT_SET_NO":"999","MEAN_MOTION_DOT":"0.00000164","SITE":"AFETR","RCS_SIZE":"LARGE","ECCENTRICITY":"0.00013520","BSTAR":"0.00002836900000","RA_OF_ASC_NODE":"242.1285","FILE":"3824148","APOAPSIS":"540.687","OBJECT_TYPE":"PAYLOAD","COUNTRY_CODE":"US"},{"TIME_SYSTEM":"UTC","TLE_LINE2":"2 53856  53.2160 230.8921 0001243  88.5515 271.5620 15.08847489 25412","EPOCH":"2023-02-22T20:42:18.156096","PERIAPSIS":"538.863","MEAN_ANOMALY":"271.5620","ELEMENT_SET_NO":"999","SITE":"AFETR","RCS_SIZE":"LARGE","MEAN_MOTION_DOT":"0.00002444","ECCENTRICITY":"0.00012430","BSTAR":"0.00017156000000","RA_OF_ASC_NODE":"230.8921","FILE":"3825529","APOAPSIS":"540.582","OBJECT_TYPE":"PAYLOAD","COUNTRY_CODE":"US","CENTER_NAME":"EARTH","OBJECT_NAME":"STARLINK-4795","PERIOD":"95.437","CLASSIFICATION_TYPE":"U","GP_ID":"226477343","SEMIMAJOR_AXIS":"6917.857","MEAN_MOTION":"15.08847489","REF_FRAME":"TEME","LAUNCH_DATE":"2022-09-19","EPHEMERIS_TYPE":"0","NORAD_CAT_ID":"53856","REV_AT_EPOCH":"2541","MEAN_MOTION_DDOT":"0.0000000000000","MEAN_ELEMENT_THEORY":"SGP4","OBJECT_ID":"2022-114AQ","DECAY_DATE":null,"TLE_LINE1":"1 53856U 22114AQ  23053.86271014  .00002444  00000-0  17156-3 0  9996","ARG_OF_PERICENTER":"88.5515","INCLINATION":"53.2160"},{"RA_OF_ASC_NODE":"240.2910","BSTAR":"-0.00000620990000","ECCENTRICITY":"0.00011390","OBJECT_TYPE":"PAYLOAD","COUNTRY_CODE":"US","APOAPSIS":"540.543","FILE":"3825529","EPOCH":"2023-02-22T21:12:41.483808","TLE_LINE2":"2 53857  53.2154 240.2910 0001139  91.5364 268.5759 15.08836696 25281","TIME_SYSTEM":"UTC","SITE":"AFETR","RCS_SIZE":"LARGE","MEAN_MOTION_DOT":"-0.00000387","ELEMENT_SET_NO":"999","MEAN_ANOMALY":"268.5759","PERIAPSIS":"538.968","DECAY_DATE":null,"OBJECT_ID":"2022-114AR","MEAN_ELEMENT_THEORY":"SGP4","MEAN_MOTION_DDOT":"0.0000000000000","INCLINATION":"53.2154","ARG_OF_PERICENTER":"91.5364","TLE_LINE1":"1 53857U 22114AR  23053.88381347 -.00000387  00000-0 -62099-5 0  9994","MEAN_MOTION":"15.08836696","SEMIMAJOR_AXIS":"6917.890","CLASSIFICATION_TYPE":"U","GP_ID":"226477568","OBJECT_NAME":"STARLINK-4809","PERIOD":"95.438","CENTER_NAME":"EARTH","REV_AT_EPOCH":"2528","NORAD_CAT_ID":"53857","EPHEMERIS_TYPE":"0","REF_FRAME":"TEME","LAUNCH_DATE":"2022-09-19"},{"ELEMENT_SET_NO":"999","RCS_SIZE":"LARGE","SITE":"AFETR","MEAN_MOTION_DOT":"0.00000850","PERIAPSIS":"538.920","MEAN_ANOMALY":"267.3869","TLE_LINE2":"2 53858  53.2173 230.9589 0001181  92.7258 267.3869 15.08842658 25412","EPOCH":"2023-02-22T20:58:13.397952","TIME_SYSTEM":"UTC","APOAPSIS":"540.554","OBJECT_TYPE":"PAYLOAD","COUNTRY_CODE":"US","FILE":"3825529","BSTAR":"0.00007148800000","RA_OF_ASC_NODE":"230.9589","ECCENTRICITY":"0.00011810","EPHEMERIS_TYPE":"0","NORAD_CAT_ID":"53858","REV_AT_EPOCH":"2541","REF_FRAME":"TEME","LAUNCH_DATE":"2022-09-19","GP_ID":"226476342","CLASSIFICATION_TYPE":"U","SEMIMAJOR_AXIS":"6917.872","MEAN_MOTION":"15.08842658","CENTER_NAME":"EARTH","PERIOD":"95.437","OBJECT_NAME":"STARLINK-4798","INCLINATION":"53.2173","TLE_LINE1":"1 53858U 22114AS  23053.87376618  .00000850  00000-0  71488-4 0  9993","ARG_OF_PERICENTER":"92.7258","DECAY_DATE":null,"MEAN_MOTION_DDOT":"0.0000000000000","MEAN_ELEMENT_THEORY":"SGP4","OBJECT_ID":"2022-114AS"},{"NORAD_CAT_ID":"53859","REV_AT_EPOCH":"2533","EPHEMERIS_TYPE":"0","REF_FRAME":"TEME","LAUNCH_DATE":"2022-09-19","MEAN_MOTION":"15.08839243","SEMIMAJOR_AXIS":"6917.883","GP_ID":"226476592","CLASSIFICATION_TYPE":"U","PERIOD":"95.438","OBJECT_NAME":"STARLINK-4790","CENTER_NAME":"EARTH","INCLINATION":"53.2168","ARG_OF_PERICENTER":"81.7220","TLE_LINE1":"1 53859U 22114AT  23053.76933461  .00002296  00000-0  16230-3 0  9996","DECAY_DATE":null,"OBJECT_ID":"2022-114AT","MEAN_ELEMENT_THEORY":"SGP4","MEAN_MOTION_DDOT":"0.0000000000000","SITE":"AFETR","MEAN_MOTION_DOT":"0.00002296","RCS_SIZE":"LARGE","ELEMENT_SET_NO":"999","MEAN_ANOMALY":"278.3930","PERIAPSIS":"538.782","EPOCH":"2023-02-22T18:27:50.510304","TLE_LINE2":"2 53859  53.2168 236.0137 0001396  81.7220 278.3930 15.08839243 25336","TIME_SYSTEM":"UTC","OBJECT_TYPE":"PAYLOAD","COUNTRY_CODE":"US","APOAPSIS":"540.713","FILE":"3825529","RA_OF_ASC_NODE":"236.0137","BSTAR":"0.00016230000000","ECCENTRICITY":"0.00013960"}];
